GLOBALSTAR M068         
1 32266U 07048D   26016.39645298 -.00000098  00000+0  30799-4 0  9998
2 32266  51.9905  12.3146 0000795 241.9061 265.7220 12.62837753844498
GLOBALSTAR M079         
1 37188U 10054A   26016.57252016 -.00000089  00000+0  82453-4 0  9993
2 37188  52.0012 210.2081 0001207  74.7877 322.4106 12.62270011703407
GLOBALSTAR M074         
1 37189U 10054B   26016.31184182 -.00000082  00000+0  11994-3 0  9998
2 37189  51.9990 210.2916 0001191  90.7882  80.6102 12.62265530703975
GLOBALSTAR M076         
1 37190U 10054C   26016.54896327 -.00000067  00000+0  20359-3 0  9994
2 37190  52.0003 209.7605 0001320  85.5180 323.2561 12.62269640703723
GLOBALSTAR M077         
1 37191U 10054D   26016.44903868 -.00000049  00000+0  53274-3 0  9995
2 37191  51.9942 204.6934 0001730  82.1331 285.8969 11.68177738703411
GLOBALSTAR M075         
1 37192U 10054E   26016.43078200 -.00000069  00000+0  19396-3 0  9997
2 37192  51.9935 252.2591 0000872  72.6826 100.0226 12.62263611702774
GLOBALSTAR M073         
1 37193U 10054F   26016.56858516 -.00000117  00000+0 -74990-4 0  9995
2 37193  52.0043 165.8213 0001189  92.4965 344.8695 12.62268994704783
GLOBALSTAR M083         
1 37739U 11033A   26016.56742979 -.00000115  00000+0 -60083-4 0  9990
2 37739  51.9855 114.2610 0000827 100.8291 273.1230 12.62266480673806
GLOBALSTAR M088         
1 37740U 11033B   26016.41221835 -.00000094  00000+0  56745-4 0  9994
2 37740  52.0237  20.7929 0000217 107.5121  40.3908 12.62271588669320
GLOBALSTAR M091         
1 37741U 11033C   26016.26512067 -.00000095  00000+0  46358-4 0  9998
2 37741  52.0023 344.4327 0000358  38.0607 100.1245 12.62268639670093
GLOBALSTAR M085         
1 37742U 11033D   26016.49660796 -.00000076  00000+0  15347-3 0  9999
2 37742  52.0141 294.8887 0000757  41.3126 129.8481 12.62268195670637
GLOBALSTAR M081         
1 37743U 11033E   26014.22114887 -.00000092  00000+0  64041-4 0  9998
2 37743  51.9976 304.4229 0000789  52.4090  94.8160 12.62271749670496
GLOBALSTAR M089         
1 37744U 11033F   26016.61132027 -.00000063  00000+0  22870-3 0  9991
2 37744  51.9916 251.3352 0001071  87.9570 305.4573 12.62263650671648
GLOBALSTAR M084         
1 38040U 11080A   26016.54096678 -.00000120  00000+0 -89110-4 0  9992
2 38040  52.0004 118.9481 0001059 121.0446 251.8999 12.62267079649614
GLOBALSTAR M080         
1 38041U 11080B   26016.59185529 -.00000122  00000+0 -10361-3 0  9995
2 38041  52.0057 120.4592 0000362 118.2824 255.7546 12.62265399649746
GLOBALSTAR M082         
1 38042U 11080C   26016.55747601 -.00000091  00000+0  70019-4 0  9998
2 38042  52.0083  76.0491 0000215 123.3180  24.1746 12.62266655650444
GLOBALSTAR M092         
1 38043U 11080D   26016.59538325 -.00000107  00000+0 -17578-4 0  9994
2 38043  52.0066 166.3207 0000990 101.3576 338.3693 12.62269465648900
GLOBALSTAR M090         
1 38044U 11080E   26016.58560112 -.00000090  00000+0  74170-4 0  9994
2 38044  52.0128  69.8709 0000455 102.2658  51.8769 12.62265816650563
GLOBALSTAR M086         
1 38045U 11080F   26016.60239553 -.00000090  00000+0  75276-4 0  9998
2 38045  51.9905  69.9964 0001510  85.8348  36.4792 12.62282082650518
GLOBALSTAR M097         
1 39072U 13005A   26016.60401806 -.00000102  00000+0  10394-4 0  9994
2 39072  52.0070 344.7678 0000545  55.5458 304.5461 12.62268161597764
GLOBALSTAR M093         
1 39073U 13005B   26016.57784641 -.00000098  00000+0  34953-4 0  9993
2 39073  52.0129 338.1380 0000768  39.3499 320.7424 12.62271637597715
GLOBALSTAR M094         
1 39074U 13005C   26016.34027786 -.00000064  00000+0  22364-3 0  9994
2 39074  51.9944 253.1315 0001094  60.3574 299.7401 12.62266120599290
GLOBALSTAR M096         
1 39075U 13005D   26016.51162243 -.00000088  00000+0  90281-4 0  9992
2 39075  52.0091 301.2886 0000726  43.9253 316.1672 12.62262080598234
GLOBALSTAR M078         
1 39076U 13005E   26016.40633688 -.00000082  00000+0  12142-3 0  9990
2 39076  51.9888  25.8286 0000564 301.3431  58.7381 12.62273728596841
GLOBALSTAR M095         
1 39077U 13005F   26016.43273334 -.00000096  00000+0  41501-4 0  9999
2 39077  52.0098  23.1373 0000356  10.5488 349.5387 12.62267795596704
GLOBALSTAR M087         
1 52888U 22064A   26016.36671112 -.00000111  00000+0 -39801-4 0  9996
2 52888  51.9976 164.6626 0000949  87.5550 272.5425 12.62262392171969
